1 45407U 20019AZ  23256.69956273 -.00003427  00000+0 -21124-3 0  9997
2 45407  53.0541 252.7432 0001460  87.9757 272.1399 15.06405342193005
STARLINK-1278           
1 45408U 20019BA  23256.77885507  .00010479  00000+0  72117-3 0  9999
2 45408  53.0534 282.3895 0001384  91.2092 268.9056 15.06410062192608
STARLINK-1282           
1 45409U 20019BB  23256.70790247  .00003610  00000+0  26106-3 0  9995
2 45409  53.0531 252.7084 0001464  97.5782 262.5374 15.06404100193016
STARLINK-1293           
1 45411U 20019BD  23256.39091894  .00001736  00000+0  13541-3 0  9991
2 45411  53.0554 254.1275 0001534 100.0650 260.0512 15.06396223192982
STARLINK-1296           
1 45412U 20019BE  23256.68947283  .00011438  00000+0  78535-3 0  9990
2 45412  53.0526 252.7911 0001527  88.3407 271.7757 15.06407575193000
STARLINK-1298           
1 45413U 20019BF  23256.38722926  .00001989  00000+0  15239-3 0  9995
2 45413  53.0540 254.1447 0001478  95.4798 264.6359 15.06396379193057
STARLINK-1309           
1 45414U 20019BG  23256.50517755  .00008020  00000+0  55668-3 0  9995
2 45414  53.0522 253.6196 0001643  91.9001 268.2176 15.06400815192962
STARLINK-1316           
1 45415U 20019BH  23256.26559451  .00003067  00000+0  22472-3 0  9991
2 45415  53.0540 254.6926 0001483  86.4544 273.6615 15.06402002192966
STARLINK-1318           
1 45416U 20019BJ  23256.69684646  .00001173  00000+0  97671-4 0  9994
2 45416  53.0563 252.7643 0001744 108.1906 251.9273 15.06398454193012
STARLINK-1286           
1 45417U 20019BK  23256.76779630  .00005937  00000+0  41700-3 0  9994
2 45417  53.0533 282.4392 0001437  98.0838 262.0314 15.06410293192879
STARLINK-1308           
1 45419U 20019BM  23256.76411182  .00004003  00000+0  28739-3 0  9991
2 45419  53.0532 282.4537 0001598  80.3619 279.7550 15.06412919192627
STARLINK-1329           
1 45531U 20025A   23256.93182384  .00010092  00000+0  69508-3 0  9995
2 45531  53.0538 221.7009 0001599 100.0686 260.0483 15.06417445188276
STARLINK-1338           
1 45532U 20025B   23256.34576189  .00006487  00000+0  45401-3 0  9990
2 45532  53.0543 224.3327 0001500  98.2334 261.8825 15.06400547188189
STARLINK-1341           
1 45534U 20025D   23256.88758708  .00002805  00000+0  20709-3 0  9994
2 45534  53.0529 221.8995 0001173  90.2764 269.8359 15.06408963188262
STARLINK-1350           
1 45535U 20025E   23256.90602238  .00023060  00000+0  15605-2 0  9998
2 45535  53.0537 221.8182 0001439  83.9449 276.1704 15.06433586188279
STARLINK-1352           
1 45536U 20025F   23256.64432397  .00025866  00000+0  17482-2 0  9998
2 45536  53.0533 222.9923 0001531  99.0281 261.0881 15.06417471188225
STARLINK-1362           
1 45538U 20025H   23256.33026859  .00010844  00000+0  71354-3 0  9997
2 45538  53.0523 224.3175 0001338 105.0477 255.0661 15.08043958188182
STARLINK-1368           
1 45540U 20025K   23256.64800598  .00016833  00000+0  11456-2 0  9994
2 45540  53.0531 222.9746 0001714 104.3076 255.8104 15.06421166188221
STARLINK-1369           
1 45541U 20025L   23256.65169052  .00020216  00000+0  13713-2 0  9997
2 45541  53.0539 222.9589 0001769  98.6531 261.4658 15.06424075188225
STARLINK-1371           
1 45542U 20025M   23256.35313860  .00018444  00000+0  12545-2 0  9995
2 45542  53.0535 224.2986 0001318  95.2617 264.8522 15.06380960188182
STARLINK-1372           
1 45543U 20025N   23256.92076343  .00011544  00000+0  79225-3 0  9994
2 45543  53.0536 221.7502 0001685 104.7219 255.3957 15.06415751187364
STARLINK-1373           
1 45544U 20025P   23256.20938224  .00003675  00000+0  26545-3 0  9994
2 45544  53.0538 224.9446 0001495  97.5979 262.5179 15.06401755188164
STARLINK-1374           
1 45545U 20025Q   23256.89127479  .00001380  00000+0  11151-3 0  9990
2 45545  53.0549 221.8830 0001347  84.9368 275.1775 15.06403838188243
STARLINK-1375           
1 45546U 20025R   23256.63694865  .00025644  00000+0  17329-2 0  9992
2 45546  53.0527 223.0269 0001400  99.3537 260.7610 15.06428478188221
STARLINK-1377           
1 45547U 20025S   23256.89864359  .00014894  00000+0  10158-2 0  9996
2 45547  53.0539 221.8487 0001351  92.8151 267.2992 15.06431718188279
STARLINK-1378           
1 45548U 20025T   23256.64328290  .00028514  00000+0  18410-2 0  9992
2 45548  53.0530 222.8297 0001554  98.3089 261.8077 15.08058060188223
STARLINK-1390           
1 45550U 20025V   23256.91610318  .00016017  00000+0  10911-2 0  9993
2 45550  53.0532 221.5052 0002623 101.6323 258.4961 15.06420602188261
STARLINK-1294           
1 45551U 20025W   23256.87837797  .00012378  00000+0  84800-3 0  9996
2 45551  53.0548 201.9406 0001411 100.8764 259.2384 15.06418765188544
STARLINK-1323           
1 45553U 20025Y   23256.88943392  .00012797  00000+0  87589-3 0  9990
2 45553  53.0544 201.8947 0001591 104.3402 255.7764 15.06423983187256
STARLINK-1325           
1 45554U 20025Z   23256.28400290  .00017553  00000+0  11938-2 0  9999
2 45554  53.0537 204.6006 0001492  97.1133 263.0025 15.06416565188459
STARLINK-1327           
1 45555U 20025AA  23256.18174358  .00029103  00000+0  19640-2 0  9994
2 45555  53.0532 205.0716 0001355  96.4104 263.7039 15.06412557188433
STARLINK-1334           
1 45556U 20025AB  23256.88575185  .00013404  00000+0  91671-3 0  9997
2 45556  53.0544 201.9074 0001333  92.4345 267.6796 15.06413615188549
STARLINK-1336           
1 45557U 20025AC  23256.22965797  .00013469  00000+0  92123-3 0  9992
2 45557  53.0538 204.8550 0001439 100.0644 260.0508 15.06405914188449
STARLINK-1342           
1 45558U 20025AD  23256.26283636  .00030220  00000+0  20385-2 0  9996
2 45558  53.0532 204.7071 0001299  92.1432 267.9706 15.06409006188443
STARLINK-1344           
1 45559U 20025AE  23256.22870576  .00005346  00000+0  37743-3 0  9996
2 45559  53.0533 204.8104 0001242  97.4202 262.6928 15.06405609188447
STARLINK-1346           
1 45560U 20025AF  23256.82996712  .00005613  00000+0  41252-3 0  9992
2 45560  53.0540 192.2957 0001193  90.2469 269.8656 15.04795825188676
STARLINK-1354           
1 45562U 20025AH  23256.83783053  .00012855  00000+0  87999-3 0  9991
2 45562  53.0536 202.1243 0001366 121.3239 238.7884 15.06413205188539
STARLINK-1355           
1 45563U 20025AJ  23256.85257883  .00016086  00000+0  10956-2 0  9999
2 45563  53.0529 202.0591 0001203 103.5961 256.5162 15.06425630188533
STARLINK-1356           
1 45564U 20025AK  23256.84889294  .00013674  00000+0  93478-3 0  9997
2 45564  53.0540 202.0754 0001248  93.5364 266.5767 15.06413212188537
STARLINK-1357           
1 45565U 20025AL  23256.24440419  .00015346  00000+0  10464-2 0  9995
2 45565  53.0542 204.7860 0001455  96.0233 264.0922 15.06416717188449
STARLINK-1358           
1 45566U 20025AM  23256.25915004  .00027692  00000+0  18698-2 0  9998
2 45566  53.0536 204.7225 0001404  95.1326 264.9823 15.06417748188449
STARLINK-1361           
1 45567U 20025AN  23256.27020487  .00018427  00000+0  12521-2 0  9998
2 45567  53.0537 204.6690 0001253  98.3643 261.7488 15.06418308188451
STARLINK-1363           
1 45568U 20025AP  23256.88209628  .00013578  00000+0  92822-3 0  9997
2 45568  53.0541 202.1668 0001553  99.6694 260.4470 15.06418701188531
STARLINK-1366           
1 45569U 20025AQ  23256.27389138  .00016396  00000+0  11165-2 0  9997
2 45569  53.0543 204.6553 0001475  96.0706 264.0451 15.06417337188445
STARLINK-1376           
1 45570U 20025AR  23256.26651904  .00015268  00000+0  10412-2 0  9992
2 45570  53.0543 204.6866 0001563 105.7839 254.3322 15.06415442188441
STARLINK-1261           
1 45571U 20025AS  23256.91667824  .00003989  00000+0  28355-4 0  9997
2 45571  53.0511 183.3832 0001283  74.5216  59.0369 15.76731237  5612
STARLINK-1320           
1 45572U 20025AT  23256.79003332  .00044662  00000+0  24818-2 0  9993
2 45572  53.0539 188.7014 0001337 103.9160 256.1981 15.13289059188724
STARLINK-1321           
1 45573U 20025AU  23256.84981305  .00014047  00000+0  95936-3 0  9999
2 45573  53.0539 192.0704 0001469 103.1919 256.9233 15.06426204188375
STARLINK-1324           
1 45574U 20025AV  23256.27850174  .00017400  00000+0  11838-2 0  9990
2 45574  53.0547 194.6347 0001885  72.7286 287.3909 15.06411023188603
STARLINK-1328           
1 45576U 20025AX  23256.83506874  .00013366  00000+0  91388-3 0  9995
2 45576  53.0538 192.1345 0001270  99.0943 261.0189 15.06424823188685
STARLINK-1330           
1 45577U 20025AY  23256.88953599  .00219879  00000+0  32013-2 0  9997
2 45577  53.0320 146.9393 0006180 144.5505 215.5916 15.54457941189313
STARLINK-1331           
1 45578U 20025AZ  23256.82769841  .00015460  00000+0  10537-2 0  9994
2 45578  53.0542 192.1690 0001339  97.8904 262.2236 15.06427044188688
STARLINK-1332           
1 45579U 20025BA  23256.90143020  .00027881  00000+0  18803-2 0  9993
2 45579  53.0537 151.9995 0001301  78.3145 281.7990 15.06458168189241
STARLINK-1333           
1 45580U 20025BB  23256.83413937  .00022159  00000+0  15001-2 0  9994
2 45580  53.0537 202.1417 0001414 108.2913 251.8230 15.06442944188533
STARLINK-1335           
1 45581U 20025BC  23256.83875411  .00014604  00000+0  99653-3 0  9996
2 45581  53.0541 192.1168 0001600 103.1925 256.9243 15.06426714188676
STARLINK-1337           
1 45582U 20025BD  23256.86087043  .00026177  00000+0  17687-2 0  9990
2 45582  53.0542 192.0239 0002131 108.9736 251.1484 15.06420594188673
STARLINK-1340           
1 45583U 20025BE  23256.24532190  .00001230  00000+0  10145-3 0  9997
2 45583  53.0542 194.7810 0001440  92.7105 267.4049 15.06399157188587
STARLINK-1343           
1 45584U 20025BF  23256.90537017 -.00006726  00000+0 -37158-4 0  9995
2 45584  53.0377 119.5587 0001176 117.4986 242.6153 15.76705200189699
STARLINK-1347           
1 45586U 20025BH  23256.85350074  .00010921  00000+0  75053-3 0  9992
2 45586  53.0531 192.0549 0001459  98.0187 262.0967 15.06420384188663
STARLINK-1349           
1 45587U 20025BJ  23256.22690507  .00032184  00000+0  21690-2 0  9994
